{
  "type": "FeatureCollection",
  "features": [
    {
      "type": "Feature",
      "properties": {
        "norad_id": 34010,
        "name": "COSMOS 2251 DEB",
        "group": "cosmos-2251-debris",
        "lat": -14.986399202982215,
        "lon": -96.65787044223705,
        "alt_km": 509.86639800920966,
        "timestamp": "2025-12-20T03:42:47.787641+00:00",
        "meta_object_name": "COSMOS 2251 DEB",
        "meta_object_id": "1993-036GV",
        "meta_epoch": "2025-12-19T04:05:03.369696",
        "meta_mean_motion": 15.19746012,
        "meta_eccentricity": 0.0004444,
        "meta_inclination": 73.9996,
        "meta_ra_of_asc_node": 269.8144,
        "meta_arg_of_pericenter": 61.7283,
        "meta_mean_anomaly": 298.4362,
        "meta_ephemeris_type": 0,
        "meta_classification_type": "U",
        "meta_norad_cat_id": 34010,
        "meta_element_set_no": 999,
        "meta_rev_at_epoch": 89383,
        "meta_bstar": 0.0028624,
        "meta_mean_motion_dot": 0.00061726,
        "meta_mean_motion_ddot": 0,
        "tle_line1": "1 34010U 93036GV  25353.17017789  .00061726  00000+0  28624-2 0  9992",
        "tle_line2": "2 34010  73.9996 269.8144 0004444  61.7283 298.4362 15.19746012893831"
      },
      "geometry": {
        "type": "Point",
        "coordinates": [
          -96.65787044223705,
          -14.986399202982215
        ]
      }
    },
    {
      "type": "Feature",
      "properties": {
        "norad_id": 34011,
        "name": "COSMOS 2251 DEB",
        "group": "cosmos-2251-debris",
        "lat": -28.854776488388627,
        "lon": 145.47745908045712,
        "alt_km": 783.5087640754255,
        "timestamp": "2025-12-20T03:42:47.787651+00:00",
        "meta_object_name": "COSMOS 2251 DEB",
        "meta_object_id": "1993-036GW",
        "meta_epoch": "2025-12-19T08:25:33.254976",
        "meta_mean_motion": 14.41798846,
        "meta_eccentricity": 0.0036015,
        "meta_inclination": 74.0144,
        "meta_ra_of_asc_node": 317.8802,
        "meta_arg_of_pericenter": 39.4931,
        "meta_mean_anomaly": 320.8839,
        "meta_ephemeris_type": 0,
        "meta_classification_type": "U",
        "meta_norad_cat_id": 34011,
        "meta_element_set_no": 999,
        "meta_rev_at_epoch": 88011,
        "meta_bstar": 0.00053334,
        "meta_mean_motion_dot": 1.73e-05,
        "meta_mean_motion_ddot": 0,
        "tle_line1": "1 34011U 93036GW  25353.35107934  .00001730  00000+0  53334-3 0  9991",
        "tle_line2": "2 34011  74.0144 317.8802 0036015  39.4931 320.8839 14.41798846880117"
      },
      "geometry": {
        "type": "Point",
        "coordinates": [
          145.47745908045712,
          -28.854776488388627
        ]
      }
    },
    {
      "type": "Feature",
      "properties": {
        "norad_id": 34014,
        "name": "COSMOS 2251 DEB",
        "group": "cosmos-2251-debris",
        "lat": -73.00206814021217,
        "lon": 155.9031817647727,
        "alt_km": 677.7506538936541,
        "timestamp": "2025-12-20T03:42:47.787661+00:00",
        "meta_object_name": "COSMOS 2251 DEB",
        "meta_object_id": "1993-036GZ",
        "meta_epoch": "2025-12-19T12:38:06.639936",
        "meta_mean_motion": 14.73214942,
        "meta_eccentricity": 0.0037353,
        "meta_inclination": 74.0178,
        "meta_ra_of_asc_node": 267.4842,
        "meta_arg_of_pericenter": 45.2567,
        "meta_mean_anomaly": 128.5581,
        "meta_ephemeris_type": 0,
        "meta_classification_type": "U",
        "meta_norad_cat_id": 34014,
        "meta_element_set_no": 999,
        "meta_rev_at_epoch": 89403,
        "meta_bstar": 0.0006468,
        "meta_mean_motion_dot": 4.191e-05,
        "meta_mean_motion_ddot": 0,
        "tle_line1": "1 34014U 93036GZ  25353.52646574  .00004191  00000+0  64680-3 0  9991",
        "tle_line2": "2 34014  74.0178 267.4842 0037353  45.2567 128.5581 14.73214942894035"
      },
      "geometry": {
        "type": "Point",
        "coordinates": [
          155.9031817647727,
          -73.00206814021217
        ]
      }
    },
    {
      "type": "Feature",
      "properties": {
        "norad_id": 34015,
        "name": "COSMOS 2251 DEB",
        "group": "cosmos-2251-debris",
        "lat": 35.45140189534392,
        "lon": 157.028440588642,
        "alt_km": 702.7850203192693,
        "timestamp": "2025-12-20T03:42:47.787671+00:00",
        "meta_object_name": "COSMOS 2251 DEB",
        "meta_object_id": "1993-036HA",
        "meta_epoch": "2025-12-19T11:21:38.596896",
        "meta_mean_motion": 14.60335777,
        "meta_eccentricity": 0.0020964,
        "meta_inclination": 74.0232,
        "meta_ra_of_asc_node": 146.5594,
        "meta_arg_of_pericenter": 243.3592,
        "meta_mean_anomaly": 173.1679,
        "meta_ephemeris_type": 0,
        "meta_classification_type": "U",
        "meta_norad_cat_id": 34015,
        "meta_element_set_no": 999,
        "meta_rev_at_epoch": 88629,
        "meta_bstar": 0.0010716,
        "meta_mean_motion_dot": 5.17e-05,
        "meta_mean_motion_ddot": 0,
        "tle_line1": "1 34015U 93036HA  25353.47336339  .00005170  00000+0  10716-2 0  9999",
        "tle_line2": "2 34015  74.0232 146.5594 0020964 243.3592 173.1679 14.60335777886296"
      },
      "geometry": {
        "type": "Point",
        "coordinates": [
          157.028440588642,
          35.45140189534392
        ]
      }
    },
    {
      "type": "Feature",
      "properties": {
        "norad_id": 34018,
        "name": "COSMOS 2251 DEB",
        "group": "cosmos-2251-debris",
        "lat": -46.91556948626087,
        "lon": -82.45548312762959,
        "alt_km": 1045.1904682288468,
        "timestamp": "2025-12-20T03:42:47.787682+00:00",
        "meta_object_name": "COSMOS 2251 DEB",
        "meta_object_id": "1993-036HD",
        "meta_epoch": "2025-12-19T09:36:21.607776",
        "meta_mean_motion": 13.81079174,
        "meta_eccentricity": 0.026337,
        "meta_inclination": 73.8781,
        "meta_ra_of_asc_node": 80.809,
        "meta_arg_of_pericenter": 115.4226,
        "meta_mean_anomaly": 321.5194,
        "meta_ephemeris_type": 0,
        "meta_classification_type": "U",
        "meta_norad_cat_id": 34018,
        "meta_element_set_no": 999,
        "meta_rev_at_epoch": 84749,
        "meta_bstar": 0.00026881,
        "meta_mean_motion_dot": 3.48e-06,
        "meta_mean_motion_ddot": 0,
        "tle_line1": "1 34018U 93036HD  25353.40025009  .00000348  00000+0  26881-3 0  9997",
        "tle_line2": "2 34018  73.8781  80.8090 0263370 115.4226 321.5194 13.81079174847497"
      },
      "geometry": {
        "type": "Point",
        "coordinates": [
          -82.45548312762959,
          -46.91556948626087
        ]
      }
    },
    {
      "type": "Feature",
      "properties": {
        "norad_id": 34019,
        "name": "COSMOS 2251 DEB",
        "group": "cosmos-2251-debris",
        "lat": -35.73592316126475,
        "lon": 25.153075300457242,
        "alt_km": 796.0682550920565,
        "timestamp": "2025-12-20T03:42:47.787692+00:00",
        "meta_object_name": "COSMOS 2251 DEB",
        "meta_object_id": "1993-036HE",
        "meta_epoch": "2025-12-19T13:31:25.524768",
        "meta_mean_motion": 14.33966954,
        "meta_eccentricity": 0.0062473,
        "meta_inclination": 73.9543,
        "meta_ra_of_asc_node": 38.1909,
        "meta_arg_of_pericenter": 218.4442,
        "meta_mean_anomaly": 292.6553,
        "meta_ephemeris_type": 0,
        "meta_classification_type": "U",
        "meta_norad_cat_id": 34019,
        "meta_element_set_no": 999,
        "meta_rev_at_epoch": 87618,
        "meta_bstar": 0.00056161,
        "meta_mean_motion_dot": 1.575e-05,
        "meta_mean_motion_ddot": 0,
        "tle_line1": "1 34019U 93036HE  25353.56348987  .00001575  00000+0  56161-3 0  9995",
        "tle_line2": "2 34019  73.9543  38.1909 0062473 218.4442 292.6553 14.33966954876189"
      },
      "geometry": {
        "type": "Point",
        "coordinates": [
          25.153075300457242,
          -35.73592316126475
        ]
      }
    },
    {
      "type": "Feature",
      "properties": {
        "norad_id": 34021,
        "name": "COSMOS 2251 DEB",
        "group": "cosmos-2251-debris",
        "lat": 49.41611568891338,
        "lon": -83.61480317028442,
        "alt_km": 730.7418524268815,
        "timestamp": "2025-12-20T03:42:47.787702+00:00",
        "meta_object_name": "COSMOS 2251 DEB",
        "meta_object_id": "1993-036HG",
        "meta_epoch": "2025-12-19T10:54:48.384288",
        "meta_mean_motion": 14.49970642,
        "meta_eccentricity": 0.0020974,
        "meta_inclination": 74.0366,
        "meta_ra_of_asc_node": 117.2201,
        "meta_arg_of_pericenter": 260.662,
        "meta_mean_anomaly": 174.8681,
        "meta_ephemeris_type": 0,
        "meta_classification_type": "U",
        "meta_norad_cat_id": 34021,
        "meta_element_set_no": 999,
        "meta_rev_at_epoch": 88727,
        "meta_bstar": 0.0003271,
        "meta_mean_motion_dot": 1.242e-05,
        "meta_mean_motion_ddot": 0,
        "tle_line1": "1 34021U 93036HG  25353.45472667  .00001242  00000+0  32710-3 0  9994",
        "tle_line2": "2 34021  74.0366 117.2201 0020974 260.6620 174.8681 14.49970642887279"
      },
      "geometry": {
        "type": "Point",
        "coordinates": [
          -83.61480317028442,
          49.41611568891338
        ]
      }
    }
  ]
}